[{"OBJECT_NAME":"STARLINK-30916","OBJECT_ID":"2023-178T","EPOCH":"2026-03-09T05:01:57.432864","MEAN_MOTION":15.30187173,"ECCENTRICITY":0.00011284,"INCLINATION":53.1626,"RA_OF_ASC_NODE":3.5031,"ARG_OF_PERICENTER":97.424,"MEAN_ANOMALY":262.6889,"EPHEMERIS_TYPE":0,"CLASSIFICATION_TYPE":"U","NORAD_CAT_ID":58391,"ELEMENT_SET_NO":999,"REV_AT_EPOCH":12981,"BSTAR":5.944348e-6,"MEAN_MOTION_DOT":-1.83e-6,"MEAN_MOTION_DDOT":0},{"OBJECT_NAME":"NEXSAT-1","OBJECT_ID":"2024-024E","EPOCH":"2026-03-09T22:47:24.778176","MEAN_MOTION":15.32166372,"ECCENTRICITY":0.00099795,"INCLINATION":97.3124,"RA_OF_ASC_NODE":144.1918,"ARG_OF_PERICENTER":108.5709,"MEAN_ANOMALY":251.6617,"EPHEMERIS_TYPE":0,"CLASSIFICATION_TYPE":"U","NORAD_CAT_ID":58921,"ELEMENT_SET_NO":999,"REV_AT_EPOCH":11669,"BSTAR":0.00031433612,"MEAN_MOTION_DOT":9.702e-5,"MEAN_MOTION_DDOT":0}]
